STARLINK-2041
1 17657C 21012AP  21326.11944439  .00006769  00000-0  45347-3 0  3262
2 17657  53.0541 273.2119 0001795  71.5634 236.3288 15.06398868    19
